ONEWEB-0512             
1 54130U 22138T   25248.84372673 -.00000119  00000+0 -32965-3 0  9990
2 54130  87.9267   1.5219 0001621  85.6241 274.5077 13.19725443139305
ONEWEB-0513             
1 54131U 22138U   25248.81726579  .00000058  00000+0  11071-3 0  9991
2 54131  87.9290   1.4874 0001874  77.6794 282.4549 13.20313397139194
ONEWEB-0514             
1 54132U 22138V   25248.85951762 -.00000066  00000+0 -19771-3 0  9996
2 54132  87.9285   1.4915 0001875 100.1668 259.9676 13.19726792139328
ONEWEB-0515             
1 54133U 22138W   25248.72786573  .00000060  00000+0  11644-3 0  9992
2 54133  87.9294 331.1217 0002113 125.1786 234.9546 13.20770985141755
ONEWEB-0516             
1 54134U 22138X   25248.75843616  .00000015  00000+0  60050-5 0  9995
2 54134  87.9270   1.5439 0001615  98.8690 261.2626 13.19726379139317
ONEWEB-0517             
1 54135U 22138Y   25248.81371531 -.00000016  00000+0 -73168-4 0  9991
2 54135  87.9286   1.4958 0002076  94.2180 265.9190 13.19726060139321
ONEWEB-0518             
1 54136U 22138Z   25248.83264769 -.00000205  00000+0 -54459-3 0  9999
2 54136  87.9281   1.5279 0001658  93.4443 266.6879 13.19724890139323
ONEWEB-0519             
1 54137U 22138AA  25248.85794364 -.00000120  00000+0 -33086-3 0  9990
2 54137  87.9284   1.4788 0001960  93.8667 266.2690 13.19725987139335
